[{"OBJECT_NAME":"TIANQI-34","OBJECT_ID":"2024-245B","EPOCH":"2026-03-09T23:15:23.393664","MEAN_MOTION":13.99150142,"ECCENTRICITY":0.00063477,"INCLINATION":44.9809,"RA_OF_ASC_NODE":43.206,"ARG_OF_PERICENTER":277.4592,"MEAN_ANOMALY":82.5519,"EPHEMERIS_TYPE":0,"CLASSIFICATION_TYPE":"U","NORAD_CAT_ID":62366,"ELEMENT_SET_NO":999,"REV_AT_EPOCH":6243,"BSTAR":0.0001456887,"MEAN_MOTION_DOT":8.4e-7,"MEAN_MOTION_DDOT":0},{"OBJECT_NAME":"FENGYUN 1C DEB","OBJECT_ID":"1999-025HA","EPOCH":"2026-03-09T01:43:48.251136","MEAN_MOTION":14.44816846,"ECCENTRICITY":0.0208272,"INCLINATION":99.028,"RA_OF_ASC_NODE":116.4251,"ARG_OF_PERICENTER":62.0815,"MEAN_ANOMALY":300.1293,"EPHEMERIS_TYPE":0,"CLASSIFICATION_TYPE":"U","NORAD_CAT_ID":29904,"ELEMENT_SET_NO":999,"REV_AT_EPOCH":304,"BSTAR":0.00054372394,"MEAN_MOTION_DOT":2.409e-5,"MEAN_MOTION_DDOT":0}]
